STARLINK-37079          
1 68186U 26050V   26084.79563776  .00259149  00000+0  12710-2 0  9994
2 68186  53.1600 200.9567 0000847  72.1834 287.9281 15.80983657  3023
STARLINK-37006          
1 68187U 26050W   26085.30064454  .00297310  00000+0  14534-2 0  9990
2 68187  53.1596 198.4176 0000717  76.5983 283.5120 15.80949577  3100
STARLINK-36340          
1 68188U 26050X   26085.29989488  .00454893  00000+0  21829-2 0  9998
2 68188  53.1588 198.4117 0000831 119.1146 240.9960 15.80933043  3008
STARLINK-36305          
1 68189U 26050Y   26085.29914724  .00464879  00000+0  22282-2 0  9999
2 68189  53.1591 198.4070 0001243 149.7626 210.3469 15.80933049  3002
STARLINK-37071          
1 68190U 26050Z   26085.29764667  .00286863  00000+0  14068-2 0  9998
2 68190  53.1592 198.3966 0000843 134.4530 225.6562 15.80908875  3101
STARLINK-37091          
1 68191U 26050AA  26085.04401469  .00340193  00000+0  16505-2 0  9995
2 68191  53.1593 199.6588 0001406  66.8452 293.2719 15.80999217  3064
STARLINK-37098          
1 68192U 26050AB  26085.04327355  .00250152  00000+0  12299-2 0  9998
2 68192  53.1596 199.6546 0002757  68.9204 291.2113 15.80952966  3066
STARLINK-37090          
1 68193U 26050AC  26085.29465003  .00627219  00000+0  29197-2 0  9996
2 68193  53.1590 198.3760 0001057 203.7291 156.3683 15.81143737  3109
STARLINK-37093          
1 68194U 26050AD  26085.29839747  .00266881  00000+0  13126-2 0  9996
2 68194  53.1597 198.4012 0000719  75.8405 284.2698 15.80900749  3107
STARLINK-37058          
1 68195U 26050AE  26085.23217781  .00153675  00000+0  76730-3 0  9996
2 68195  53.1592 198.6979 0001154  47.9660 312.1461 15.80902814  1533
YAOGAN-50 02            
1 68196U 26051A   26085.25824810  .00000267  00000+0  73185-4 0  9997
2 68196 141.9879 287.1078 0001071 230.8386 129.2238 13.83268443  1508
